[{"OBJECT_NAME":"FLOCK 4G-26","OBJECT_ID":"2025-009AA","EPOCH":"2026-03-09T19:19:02.910720","MEAN_MOTION":15.27281631,"ECCENTRICITY":0.0001988,"INCLINATION":97.4054,"RA_OF_ASC_NODE":151.3913,"ARG_OF_PERICENTER":299.1273,"MEAN_ANOMALY":60.9767,"EPHEMERIS_TYPE":0,"CLASSIFICATION_TYPE":"U","NORAD_CAT_ID":62633,"ELEMENT_SET_NO":999,"REV_AT_EPOCH":6373,"BSTAR":0.00042468806,"MEAN_MOTION_DOT":0.00011283,"MEAN_MOTION_DDOT":0},{"OBJECT_NAME":"STARLINK-34615","OBJECT_ID":"2025-253C","EPOCH":"2026-03-09T10:03:19.471968","MEAN_MOTION":15.27600643,"ECCENTRICITY":0.00015165,"INCLINATION":42.9927,"RA_OF_ASC_NODE":213.96,"ARG_OF_PERICENTER":149.7735,"MEAN_ANOMALY":210.3204,"EPHEMERIS_TYPE":0,"CLASSIFICATION_TYPE":"U","NORAD_CAT_ID":66321,"ELEMENT_SET_NO":999,"REV_AT_EPOCH":2020,"BSTAR":0.0010533718,"MEAN_MOTION_DOT":0.00028856,"MEAN_MOTION_DDOT":0}]
